OBJECT_NAME,OBJECT_ID,EPOCH,MEAN_MOTION,ECCENTRICITY,INCLINATION,RA_OF_ASC_NODE,ARG_OF_PERICENTER,MEAN_ANOMALY,EPHEMERIS_TYPE,CLASSIFICATION_TYPE,NORAD_CAT_ID,ELEMENT_SET_NO,REV_AT_EPOCH,BSTAR,MEAN_MOTION_DOT,MEAN_MOTION_DDOT
H2SAT (HEINRICH HERTZ),2023-093A,2026-07-11T20:24:17.612640,1.00269676,.00003461,0.0152,97.7205,42.1046,96.7013,0,U,57213,999,1116,0,.6E-7,0
SYRACUSE 4B,2023-093B,2026-07-11T20:22:17.805216,1.00270865,.0000513,0.0302,51.8268,192.6516,344.3919,0,U,57214,999,721,0,0,0
JUPITER 3 (ECHOSTAR 24),2023-108A,2026-07-10T11:07:24.416256,1.00270144,.00011441,0.0227,41.8846,62.5557,255.5724,0,U,57479,999,1088,0,0,0
GALAXY 37 (G-37),2023-112A,2026-07-11T16:22:35.902272,1.00270663,.00017457,0.0152,66.1275,49.8835,292.2202,0,U,57493,999,1078,0,.53E-6,0
LUDI TANCE-4 01A,2023-120A,2026-07-11T16:40:20.683776,1.00276500,.00013663,15.0887,193.3648,25.3227,50.4375,0,U,57624,999,1079,0,-.163E-5,0
TJS-10,2023-169A,2026-07-11T18:16:27.501024,1.00274817,.0004055,2.6050,80.1970,115.8899,100.0362,0,U,58204,999,978,0,-.247E-5,0
ZHONGXING-6E,2023-172A,2026-07-10T17:43:38.672256,1.00266240,.00021744,0.0182,60.2036,50.2192,199.5949,0,U,58253,999,989,0,-.352E-5,0
YAOGAN-41,2023-197A,2026-07-11T21:37:30.489312,1.00267328,.00142674,3.0851,313.5201,198.5674,225.2548,0,U,58582,999,957,0,-.354E-5,0
OVZON-3,2024-003A,2026-07-11T22:22:55.719840,1.00272216,.00002444,0.0157,101.8148,143.1951,80.2426,0,U,58698,999,769,0,.55E-6,0
INSAT-3DS,2024-033A,2026-07-11T20:47:35.069568,1.00271283,.00010435,0.1008,265.4156,225.2891,193.0316,0,U,58990,999,4731,0,-.152E-5,0
MERAH PUTIH 2,2024-035A,2026-07-11T19:13:45.046848,1.00271906,.00010623,0.0136,75.9693,37.0199,218.1080,0,U,58995,999,883,0,-.353E-5,0
TJS-11,2024-037A,2026-07-11T19:13:30.071136,1.00275459,.0001834,4.1678,327.3792,147.0131,216.2097,0,U,59020,999,883,0,-.354E-5,0
HULIANWAN GAOGUI-01 (HG-01),2024-040A,2026-07-11T13:43:02.175744,1.00270666,.00017997,0.0747,330.7168,68.2020,129.9462,0,U,59069,999,757,0,.161E-5,0
EUTELSAT 36D,2024-059A,2026-07-11T22:18:38.807712,1.00271017,.00002974,0.0280,51.0127,194.3821,54.9758,0,U,59346,999,839,0,0,0
PAKSAT-MM1,2024-104A,2026-07-11T22:18:38.807712,1.00268964,.00019828,0.0358,166.2158,289.8743,206.5516,0,U,59915,999,777,0,.158E-5,0
ASTRA 1P (SES-24),2024-115A,2026-07-11T06:48:22.021344,1.00262077,.00004529,0.0655,331.5375,245.0547,193.9008,0,U,60086,999,743,0,.126E-5,0
GOES 19,2024-119A,2026-07-11T20:02:40.357248,1.00269880,.0000592,0.0117,275.3205,290.5406,309.3407,0,U,60133,999,721,0,-.244E-5,0
ZHONGXING-3A,2024-122A,2026-07-11T07:11:42.282816,1.00272911,.0001406,0.0308,125.8357,36.8649,336.0175,0,U,60179,999,755,0,-.307E-5,0
TURKSAT 6A,2024-127A,2026-07-11T22:10:38.610336,1.00268452,.0002832,0.0697,224.4110,305.0523,135.0071,0,U,60233,999,726,0,.15E-5,0
HULIANWAN GAOGUI-02 (HG-02),2024-135A,2026-07-11T19:24:43.994592,1.00272331,.00065596,0.0468,352.1635,15.4539,6.3107,0,U,60327,999,774,0,-.169E-5,0
ZHONGXING-4A,2024-151A,2026-07-11T21:40:37.989408,1.00268975,.00003666,1.2528,270.5303,302.0202,160.6248,0,U,60606,999,700,0,-.357E-5,0
HULIANWAN GAOGUI-03 (HG-03),2024-181A,2026-07-11T01:12:55.149984,1.00273281,.00010217,0.0502,355.7827,98.3948,135.9030,0,U,61503,999,706,0,-.234E-5,0
DSN-3 (KIRAMEKI-3),2024-198A,2026-07-11T21:05:10.882752,1.00272636,.00007849,0.0147,345.3175,154.6353,250.1754,0,U,61733,999,616,0,-.246E-5,0
KOREASAT 6A,2024-206A,2026-07-11T19:14:29.975712,1.00270010,.00006754,0.0223,62.3063,30.0694,241.9734,0,U,61910,999,608,0,0,0
OPTUS-X (ADS-01),2024-212A,2026-07-11T17:43:23.177280,1.00270246,.00023574,0.0169,27.4787,126.2641,198.1413,0,U,62006,999,600,0,-.139E-5,0
GSAT-N2 (GSAT-20),2024-214A,2026-07-11T21:20:25.617696,1.00270479,.00026634,0.0837,263.8947,140.9461,272.9914,0,U,62028,999,614,0,-.15E-6,0
SXM-9,2024-234A,2026-07-11T06:18:39.866688,1.00270631,.00049481,0.0162,336.5062,340.9266,341.2470,0,U,62259,999,581,0,-.198E-5,0
TJS-12,2024-246A,2026-07-11T17:40:38.440128,1.00269785,.00017683,0.6195,301.6572,96.8985,302.7925,0,U,62374,999,581,0,-.226E-5,0
NUVIEW ALPHA,2024-252B,2026-07-11T11:27:08.900640,1.00270304,.00009178,0.0442,26.2970,44.8674,306.9037,0,U,62455,999,406,0,-.209E-5,0
AGILA,2024-252C,2026-07-11T19:24:43.994592,1.00273456,.00012695,0.0453,142.2259,6.3367,224.4968,0,U,62456,999,540,0,-.177E-5,0
NUVIEW BRAVO,2024-252D,2026-07-11T11:27:08.900640,1.00271120,.00015452,0.0690,163.6822,352.5921,221.7964,0,U,62457,999,403,0,-.209E-5,0
