H2SAT (HEINRICH HERTZ)  
1 57213U 23093A   26192.85020385  .00000006  00000+0  00000+0 0  9990
2 57213   0.0152  97.7205 0000346  42.1046  96.7013  1.00269676 11160
SYRACUSE 4B             
1 57214U 23093B   26192.84881719  .00000000  00000+0  00000+0 0  9990
2 57214   0.0302  51.8268 0000513 192.6516 344.3919  1.00270865  7217
JUPITER 3 (ECHOSTAR 24) 
1 57479U 23108A   26191.46347704  .00000000  00000+0  00000+0 0  9998
2 57479   0.0227  41.8846 0001144  62.5557 255.5724  1.00270144 10882
GALAXY 37 (G-37)        
1 57493U 23112A   26192.68235998  .00000053  00000+0  00000+0 0  9993
2 57493   0.0152  66.1275 0001745  49.8835 292.2202  1.00270663 10789
LUDI TANCE-4 01A        
1 57624U 23120A   26192.69468384 -.00000163  00000+0  00000+0 0  9999
2 57624  15.0887 193.3648 0001366  25.3227  50.4375  1.00276500 10798
TJS-10                  
1 58204U 23169A   26192.76142941 -.00000247  00000+0  00000+0 0  9996
2 58204   2.6050  80.1970 0004055 115.8899 100.0362  1.00274817  9780
ZHONGXING-6E            
1 58253U 23172A   26191.73864204 -.00000352  00000+0  00000+0 0  9990
2 58253   0.0182  60.2036 0002174  50.2192 199.5949  1.00266240  9899
YAOGAN-41               
1 58582U 23197A   26192.90104733 -.00000354  00000+0  00000+0 0  9998
2 58582   3.0851 313.5201 0014267 198.5674 225.2548  1.00267328  9570
OVZON-3                 
1 58698U 24003A   26192.93258935  .00000055  00000+0  00000+0 0  9997
2 58698   0.0157 101.8148 0000244 143.1951  80.2426  1.00272216  7693
INSAT-3DS               
1 58990U 24033A   26192.86637812 -.00000152  00000+0  00000+0 0  9991
2 58990   0.1008 265.4156 0001043 225.2891 193.0316  1.00271283 47310
MERAH PUTIH 2           
1 58995U 24035A   26192.80121582 -.00000353  00000+0  00000+0 0  9997
2 58995   0.0136  75.9693 0001062  37.0199 218.1080  1.00271906  8830
TJS-11                  
1 59020U 24037A   26192.80104249 -.00000354  00000+0  00000+0 0  9991
2 59020   4.1678 327.3792 0001834 147.0131 216.2097  1.00275459  8839
HULIANWAN GAOGUI-01 (H*)
1 59069U 24040A   26192.57155296  .00000161  00000+0  00000+0 0  9995
2 59069   0.0747 330.7168 0001799  68.2020 129.9462  1.00270666  7571
EUTELSAT 36D            
1 59346U 24059A   26192.92961583  .00000000  00000+0  00000+0 0  9998
2 59346   0.0280  51.0127 0000297 194.3821  54.9758  1.00271017  8398
PAKSAT-MM1              
1 59915U 24104A   26192.92961583  .00000158  00000+0  00000+0 0  9995
2 59915   0.0358 166.2158 0001982 289.8743 206.5516  1.00268964  7779
ASTRA 1P (SES-24)       
1 60086U 24115A   26192.28358821  .00000126  00000+0  00000+0 0  9997
2 60086   0.0655 331.5375 0000452 245.0547 193.9008  1.00262077  7432
GOES 19                 
1 60133U 24119A   26192.83518932 -.00000244  00000+0  00000+0 0  9998
2 60133   0.0117 275.3205 0000592 290.5406 309.3407  1.00269880  7210
ZHONGXING-3A            
1 60179U 24122A   26192.29979494 -.00000307  00000+0  00000+0 0  9996
2 60179   0.0308 125.8357 0001406  36.8649 336.0175  1.00272911  7559
TURKSAT 6A              
1 60233U 24127A   26192.92405799  .00000150  00000+0  00000+0 0  9999
2 60233   0.0697 224.4110 0002832 305.0523 135.0071  1.00268452  7265
HULIANWAN GAOGUI-02 (H*)
1 60327U 24135A   26192.80884253 -.00000169  00000+0  00000+0 0  9996
2 60327   0.0468 352.1635 0006559  15.4539   6.3107  1.00272331  7749
ZHONGXING-4A            
1 60606U 24151A   26192.90321747 -.00000357  00000+0  00000+0 0  9998
2 60606   1.2528 270.5303 0000366 302.0202 160.6248  1.00268975  7004
HULIANWAN GAOGUI-03 (H*)
1 61503U 24181A   26192.05063831 -.00000234  00000+0  00000+0 0  9995
2 61503   0.0502 355.7827 0001021  98.3948 135.9030  1.00273281  7064
DSN-3 (KIRAMEKI-3)      
1 61733U 24198A   26192.87859818 -.00000246  00000+0  00000+0 0  9999
2 61733   0.0147 345.3175 0000784 154.6353 250.1754  1.00272636  6162
KOREASAT 6A             
1 61910U 24206A   26192.80173583  .00000000  00000+0  00000+0 0  9994
2 61910   0.0223  62.3063 0000675  30.0694 241.9734  1.00270010  6081
OPTUS-X (ADS-01)        
1 62006U 24212A   26192.73846270 -.00000139  00000+0  00000+0 0  9994
2 62006   0.0169  27.4787 0002357 126.2641 198.1413  1.00270246  6001
GSAT-N2 (GSAT-20)       
1 62028U 24214A   26192.88918539 -.00000015  00000+0  00000+0 0  9997
2 62028   0.0837 263.8947 0002663 140.9461 272.9914  1.00270479  6144
SXM-9                   
1 62259U 24234A   26192.26296142 -.00000198  00000+0  00000+0 0  9998
2 62259   0.0162 336.5062 0004948 340.9266 341.2470  1.00270631  5810
TJS-12                  
1 62374U 24246A   26192.73655602 -.00000226  00000+0  00000+0 0  9993
2 62374   0.6195 301.6572 0001768  96.8985 302.7925  1.00269785  5816
NUVIEW ALPHA            
1 62455U 24252B   26192.47718635 -.00000209  00000+0  00000+0 0  9998
2 62455   0.0442  26.2970 0000917  44.8674 306.9037  1.00270304  4065
AGILA                   
1 62456U 24252C   26192.80884253 -.00000177  00000+0  00000+0 0  9990
2 62456   0.0453 142.2259 0001269   6.3367 224.4968  1.00273456  5407
NUVIEW BRAVO            
1 62457U 24252D   26192.47718635 -.00000209  00000+0  00000+0 0  9990
2 62457   0.0690 163.6822 0001545 352.5921 221.7964  1.00271120  4033
